UNKNOWN                 
1 81052U          25344.41346910  .00011222  00000+0  29502-2 0  9999
2 81052  65.7725  35.2914 0566283 308.8038  46.3730 13.82712090599991
UNKNOWN                 
1 81069U          25348.45696065  .00004107  00000+0  54412-2 0  9996
2 81069 100.3833 249.6700 0066727  37.9342 322.6469 13.60519653516168
UNKNOWN                 
1 81078U          25323.90755153  .00000075  00000+0  34586-2 0  9993
2 81078  65.1150 295.2969 0179923   6.6503  18.4737 11.22438010492060
UNKNOWN                 
1 81111U          25349.36782845  .00010237  00000+0  22520-2 0  9993
2 81111  62.8914  16.8216 3858720 357.3336   1.1243  7.55350169272149
UNKNOWN                 
1 81134U          25348.33434575  .00000270  00000+0  96240-3 0  9995
2 81134  90.2478   4.0649 0026299  28.5607 331.6945 12.92978265462811
UNKNOWN                 
1 81161U          25348.36386618  .00001669  00000+0  17583-2 0  9997
2 81161 100.4172 190.5407 0063780 279.5478  79.8465 13.75631178556351
UNKNOWN                 
1 81219U          25348.80491047  .00000426  00000+0  38334-3 0  9991
2 81219  82.9263   4.5911 0020790 206.5338 153.4759 13.81786855607805
UNKNOWN                 
1 81228U          25348.06415585  .00007744  00000+0  23753-2 0  9990
2 81228  70.5206 273.7602 0062804 358.3646   1.7271 14.40807538626287
UNKNOWN                 
1 81254U          25344.95922807  .00004972  00000+0  32509-2 0  9992
2 81254 100.3883  46.7990 0071877  78.2189 282.7023 14.01487201612646
UNKNOWN                 
1 81279U          25348.39657545  .00001312  00000+0  51321-3 0  9994
2 81279  98.1298  47.6904 0207433  20.5754 340.3626 14.19944202462831
UNKNOWN                 
1 81301U          25349.09544775  .00000253  00000+0  32232-3 0  9991
2 81301  66.7595 290.2437 0094437 231.2060 147.1061 13.76708775606688
UNKNOWN                 
1 81311U          25348.12130166  .00000939  00000+0  19874-3 0  9998
2 81311  98.7323  45.4617 0132195 120.2288 272.9728 14.56541664639792
UNKNOWN                 
1 81317U          25348.82457525  .00000208  00000+0  45331-3 0  9998
2 81317  67.1346 172.0384 0209947  32.7675 345.5156 13.38014178588911
UNKNOWN                 
1 81323U          25349.48129648  .00013370  00000+0  17367-2 0  9991
2 81323  65.7523  21.2405 0345954 311.8507  45.3528 14.46890052113456
UNKNOWN                 
1 81329U          25347.67410968  .00001220  00000+0  46671-3 0  9996
2 81329  65.8196 128.0411 0831255  29.5535 334.9923 13.22145338578207
UNKNOWN                 
1 81343U          25349.03410708  .00003807  00000+0  27434-3 0  9995
2 81343  85.8718 198.1289 0006295 249.5567 110.4991 15.03863415454662
UNKNOWN                 
1 81359U          25347.55008233  .00001176  00000+0  11658-2 0  9990
2 81359  66.7991  50.0567 0117394 322.7900  36.5078 13.78832326605594
UNKNOWN                 
1 81366U          25348.94448273  .00000551  00000+0  22741-3 0  9996
2 81366  65.8846  66.7891 0709723  80.5762 287.4740 13.45146623 66252
UNKNOWN                 
1 81371U          25349.02062434  .00002320  00000+0  37982-3 0  9992
2 81371  98.8144  85.6265 0070126 358.1968   1.8972 14.70293799642172
UNKNOWN                 
1 81386U          25346.77230049  .00007276  00000+0  24066-2 0  9999
2 81386  71.0491 356.4728 0083477  85.0193 276.0464 14.36253742624244
UNKNOWN                 
1 81390U          25343.41785443 -.00000251  00000+0 -15194-2 0  9995
2 81390 103.1047 231.9161 0165236 150.7058 210.3385 12.35637279499684
UNKNOWN                 
1 81392U          25347.20420233  .00004931  00000+0  46305-2 0  9996
2 81392 100.3989 335.4726 0041263  27.4401  35.5230 13.81683276602246
UNKNOWN                 
1 81405U          25348.42643194  .00002151  00000+0  16385-2 0  9996
2 81405  99.4687  36.6274 0160870 219.1437 139.7993 13.88877780562034
UNKNOWN                 
1 81406U          25333.97576167  .00001902  00000+0  77531-3 0  9990
2 81406  65.8150 183.4971 0866885 325.4234  29.3212 13.12098095532000
UNKNOWN                 
1 81427U          25347.64053577  .00001046  00000+0  63128-3 0  9993
2 81427  98.7495 229.7437 0085290  35.9282 324.7581 14.06948638551890
UNKNOWN                 
1 81438U          25336.92632827  .00003678  00000+0  54092-2 0  9997
2 81438 100.3099 208.1917 0044746  92.3523 268.2736 13.54591197590615
UNKNOWN                 
1 81439U          25347.12263683  .00000400  00000+0  12460-2 0  9995
2 81439  67.1585 141.0543 0603220 202.8956 154.4101 12.62612158261944
UNKNOWN                 
1 81449U          25349.39900536  .00038379  00000+0  30377-2 0  9995
2 81449  66.7940 344.0650 0017931 121.4420 238.8471 15.00286369633956
UNKNOWN                 
1 81478U          25348.01074958  .00005912  00000+0  21280-2 0  9995
2 81478  98.9498 259.9410 0147415 355.0798  21.4333 14.28222974623127
UNKNOWN                 
1 81488U          25349.43109008  .00000155  00000+0  28328-3 0  9993
2 81488 100.0017 222.1315 0044849 353.7161 186.9237 13.56521737596995
UNKNOWN                 
1 81497U          25349.47471771  .00003299  00000+0  29938-2 0  9995
2 81497 100.3015 244.3938 0029840   7.8537 176.1278 13.84178552216675
UNKNOWN                 
1 81499U          25349.05524014  .00001888  00000+0  52484-3 0  9995
2 81499  74.0486 216.7419 0001755 284.0137  76.0826 14.47135529482751
UNKNOWN                 
1 81535U          25349.47989788  .00000924  00000+0  39237-3 0  9996
2 81535  98.2023  71.4776 0236075 140.7039 221.1537 14.13447041387780
UNKNOWN                 
1 81536U          25348.36065027  .00000718  00000+0  46453-2 0  9993
2 81536 101.9581 209.4444 0034556 290.2461 249.9425 12.55870232552017
UNKNOWN                 
1 81537U          25343.12558943  .00000780  00000+0  48074-3 0  9998
2 81537  71.0382 116.7253 0076346 159.5108 200.9102 14.07086680619951
UNKNOWN                 
1 81552U          25345.26401799  .00001506  00000+0  33105-2 0  9993
2 81552  99.0699 272.1278 0258879  21.4868 339.6886 13.18172532579054
UNKNOWN                 
1 81599U          25342.86266301  .00000480  00000+0  95917-3 0  9995
2 81599  67.2957 289.3534 0244736  87.1848 306.7685 13.31432317584567
UNKNOWN                 
1 81605U          25343.38904231  .00004201  00000+0  17371-1 0  9993
2 81605  56.4355 223.0716 0172851 126.9912 234.6975 12.81482375185770
UNKNOWN                 
1 81614U          25340.53795765  .00016024  00000+0  10224+0 0  9991
2 81614 101.8170 336.5766 0341093 162.2756 199.0551 12.37043645537218
UNKNOWN                 
1 81615U          25349.20877671  .00001158  00000+0  43656-3 0  9993
2 81615  65.8290  56.3757 0771432 135.4964 231.0765 13.34102927583194
UNKNOWN                 
1 81617U          25349.41415442  .00000361  00000+0  23982-2 0  9996
2 81617 101.2578 163.7478 0040472 236.3494 123.3718 12.57535809553444
UNKNOWN                 
1 81624U          25348.88328366  .00005451  00000+0  86899-3 0  9994
2 81624  66.9760 161.0090 0071762 234.8265 124.6121 14.70984305640027
UNKNOWN                 
1 81640U          25349.48351029  .00000183  00000+0  22392-3 0  9996
2 81640  65.8251 126.2995 0975934  76.5946 294.1831 12.57225863510427
UNKNOWN                 
1 81652U          25348.18432083  .00001128  00000+0  13632-2 0  9991
2 81652 102.1473 236.9694 0367062 356.3230 157.4260 13.44378142578841
UNKNOWN                 
1 81667U          25348.38615073  .00002688  00000+0  72969-3 0  9992
2 81667  74.0413  33.4795 0017203 321.5959  38.3975 14.47984058456883
UNKNOWN                 
1 81674U          25346.34120477  .00001412  00000+0  84198-3 0  9994
2 81674  66.8238   5.2750 0032202 231.7823 143.0236 14.09914170613662
UNKNOWN                 
1 81683U          25348.12037927  .00004606  00000+0  10092-2 0  9998
2 81683  81.2165 293.9187 0022857 297.2049  62.6818 14.57404727636060
UNKNOWN                 
1 81693U          25347.43773904  .00000083  00000+0  84923-3 0  9994
2 81693 101.0876  48.7917 0370928  83.9430 280.3758 12.25915160967854
UNKNOWN                 
1 81745U          25349.35524309  .00001888  00000+0  61036-3 0  9992
2 81745  71.0022  21.7989 0007587 238.9851 121.0540 14.40352044630120
UNKNOWN                 
1 81775U          25349.09451318  .00003968  00000+0  12307-2 0  9992
2 81775  82.9194 222.3330 0016330 248.7940 111.1508 14.40880322625614
UNKNOWN                 
1 81779U          25347.77338314  .00007015  00000+0  36606+0 0  9991
2 81779  54.5575 207.8960 1584627  54.9656 318.9706  9.34124482480413
UNKNOWN                 
1 81792U          25349.02079551  .00001661  00000+0  60402-3 0  9997
2 81792  65.8245  90.7484 0896940 281.3567  68.8115 13.10902396 80336
UNKNOWN                 
1 81812U          25348.03154124 -.00000931  00000+0 -58267-2 0  9996
2 81812 103.8174 259.8685 0292348 248.6327 108.3298 12.37676134540728
UNKNOWN                 
1 81816U          25349.25787936  .00000609  00000+0  49460-3 0  9994
2 81816  66.2374 289.8451 0181577 245.1464 113.0636 13.89482400609695
UNKNOWN                 
1 81819U          25345.21652586  .00001269  00000+0  89000-2 0  9997
2 81819 102.1752  82.3604 0035403 125.3291 235.1094 12.47649248547825
UNKNOWN                 
1 81824U          25348.36697318  .00006891  00000+0  24008-2 0  9997
2 81824  65.8431 332.8648 0042531 325.8712  33.9648 14.35409612624829
UNKNOWN                 
1 81833U          25349.28372850  .00000237  00000+0  83304-3 0  9993
2 81833  90.2397   2.9647 0027210  19.9692 340.2485 12.93727398452841
UNKNOWN                 
1 81844U          25347.53410560  .00006924  00000+0  24714-2 0  9990
2 81844  82.9089 281.8792 0062221 148.2436 212.2529 14.32967951623002
UNKNOWN                 
1 81845U          25349.49896334  .00002084  00000+0  23445-3 0  9999
2 81845  97.6742 176.4115 0086741 296.5161  91.5697 14.85076795649934
